IRIDIUM 156             
1 43576U 18061H   26178.37341289  .00000235  00000+0  76737-4 0  9995
2 43576  86.3952  52.4696 0002010  85.9728 274.1697 14.34219054414833
IRIDIUM 164             
1 43577U 18061J   26178.35438037  .00000082  00000+0  22350-4 0  9994
2 43577  86.3953  52.5181 0002228  90.0985 270.0466 14.34218082414871
IRIDIUM 159             
1 43578U 18061K   26178.39243633  .00000043  00000+0  82984-5 0  9992
2 43578  86.3951  52.4388 0002222  84.0506 276.0943 14.34217676414845
IRIDIUM 180             
1 43922U 19002A   26178.53146939  .00000028  00000+0  30906-5 0  9998
2 43922  86.3974 349.2724 0002235  89.2557 270.8895 14.34217616390475
IRIDIUM 176             
1 43923U 19002B   26178.49003638  .00000730  00000+0  11188-3 0  9991
2 43923  86.6094 349.2316 0002416  88.5497 271.5997 14.72227059400764
IRIDIUM 168             
1 43924U 19002C   26178.52512214  .00000081  00000+0  21743-4 0  9999
2 43924  86.3976 349.3524 0002222  90.2770 269.8681 14.34216714390450
IRIDIUM 173             
1 43925U 19002D   26178.51244133  .00000042  00000+0  80563-5 0  9994
2 43925  86.3973 349.2463 0002163  88.7702 271.3742 14.34217879390437
IRIDIUM 169             
1 43926U 19002E   26178.26827249  .00000284  00000+0  86263-4 0  9992
2 43926  86.4218  20.9776 0001674  83.3521 276.7868 14.38607884391675
IRIDIUM 172             
1 43927U 19002F   26178.50609784  .00000010  00000+0 -36308-5 0  9996
2 43927  86.3971 349.2569 0002137  89.6128 270.5313 14.34216847390447
IRIDIUM 175             
1 43928U 19002G   26178.53443032  .00000299  00000+0  82346-4 0  9992
2 43928  86.4518 286.1957 0003805 152.1005 208.0401 14.43618117400474
IRIDIUM 171             
1 43929U 19002H   26178.48707065  .00000011  00000+0 -29721-5 0  9998
2 43929  86.3981 349.5723 0001991  93.9121 266.2303 14.34217562390438
IRIDIUM 170             
1 43930U 19002J   26178.49621308  .00000727  00000+0  11152-3 0  9996
2 43930  86.6093 349.2314 0002485  85.8114 274.3387 14.72227617400776
IRIDIUM 167             
1 43931U 19002K   26178.48072802 -.00000012  00000+0 -11250-4 0  9994
2 43931  86.3971 349.2901 0001886  97.4773 262.6637 14.34217374390431
IRIDIUM 181             
1 56726U 23068S   26178.36720720  .00000294  00000+0  81208-4 0  9993
2 56726  86.4489  52.5346 0002431  87.5899 272.5580 14.43311392163907
IRIDIUM 177             
1 56727U 23068T   26178.46299214  .00001061  00000+0  13676-3 0  9990
2 56727  86.1970 323.9105 0002349  89.8909 270.2581 14.80036002167883
IRIDIUM 174             
1 56728U 23068U   26178.48386887  .00000796  00000+0  12245-3 0  9991
2 56728  86.6101 349.3848 0002388  80.5371 279.6116 14.72235439167530
IRIDIUM 178             
1 56729U 23068V   26178.04632113  .00000771  00000+0  98128-4 0  9998
2 56729  86.6563  21.2355 0003306  75.7906 284.3683 14.80190446167824
IRIDIUM 179             
1 56730U 23068W   26178.51431220  .00000803  00000+0  10263-3 0  9997
2 56730  86.6771  30.0536 0002445  88.3302 271.8199 14.80054868167896
