OBJECT_NAME,OBJECT_ID,EPOCH,MEAN_MOTION,ECCENTRICITY,INCLINATION,RA_OF_ASC_NODE,ARG_OF_PERICENTER,MEAN_ANOMALY,EPHEMERIS_TYPE,CLASSIFICATION_TYPE,NORAD_CAT_ID,ELEMENT_SET_NO,REV_AT_EPOCH,BSTAR,MEAN_MOTION_DOT,MEAN_MOTION_DDOT
IRIDIUM 156,2018-061H,2026-06-27T08:57:42.873696,14.34219054,.000201,86.3952,52.4696,85.9728,274.1697,0,U,43576,999,41483,.76737E-4,.235E-5,0
IRIDIUM 164,2018-061J,2026-06-27T08:30:18.463968,14.34218082,.0002228,86.3953,52.5181,90.0985,270.0466,0,U,43577,999,41487,.2235E-4,.82E-6,0
IRIDIUM 159,2018-061K,2026-06-27T09:25:06.498912,14.34217676,.0002222,86.3951,52.4388,84.0506,276.0943,0,U,43578,999,41484,.82984E-5,.43E-6,0
IRIDIUM 180,2019-002A,2026-06-27T12:45:18.955296,14.34217616,.0002235,86.3974,349.2724,89.2557,270.8895,0,U,43922,999,39047,.30906E-5,.28E-6,0
IRIDIUM 176,2019-002B,2026-06-27T11:45:39.143232,14.72227059,.0002416,86.6094,349.2316,88.5497,271.5997,0,U,43923,999,40076,.11188E-3,.73E-5,0
IRIDIUM 168,2019-002C,2026-06-27T12:36:10.552896,14.34216714,.0002222,86.3976,349.3524,90.2770,269.8681,0,U,43924,999,39045,.21743E-4,.81E-6,0
IRIDIUM 173,2019-002D,2026-06-27T12:17:54.930912,14.34217879,.0002163,86.3973,349.2463,88.7702,271.3742,0,U,43925,999,39043,.80563E-5,.42E-6,0
IRIDIUM 169,2019-002E,2026-06-27T06:26:18.743136,14.38607884,.0001674,86.4218,20.9776,83.3521,276.7868,0,U,43926,999,39167,.86263E-4,.284E-5,0
IRIDIUM 172,2019-002F,2026-06-27T12:08:46.853376,14.34216847,.0002137,86.3971,349.2569,89.6128,270.5313,0,U,43927,999,39044,-.36308E-5,.1E-6,0
IRIDIUM 175,2019-002G,2026-06-27T12:49:34.779648,14.43618117,.0003805,86.4518,286.1957,152.1005,208.0401,0,U,43928,999,40047,.82346E-4,.299E-5,0
IRIDIUM 171,2019-002H,2026-06-27T11:41:22.904160,14.34217562,.0001991,86.3981,349.5723,93.9121,266.2303,0,U,43929,999,39043,-.29721E-5,.11E-6,0
IRIDIUM 170,2019-002J,2026-06-27T11:54:32.810112,14.72227617,.0002485,86.6093,349.2314,85.8114,274.3387,0,U,43930,999,40077,.11152E-3,.727E-5,0
IRIDIUM 167,2019-002K,2026-06-27T11:32:14.900928,14.34217374,.0001886,86.3971,349.2901,97.4773,262.6637,0,U,43931,999,39043,-.1125E-4,-.12E-6,0
IRIDIUM 181,2023-068S,2026-06-27T08:48:46.702080,14.43311392,.0002431,86.4489,52.5346,87.5899,272.5580,0,U,56726,999,16390,.81208E-4,.294E-5,0
IRIDIUM 177,2023-068T,2026-06-27T11:06:42.520896,14.80036002,.0002349,86.1970,323.9105,89.8909,270.2581,0,U,56727,999,16788,.13676E-3,.1061E-4,0
IRIDIUM 174,2023-068U,2026-06-27T11:36:46.270368,14.72235439,.0002388,86.6101,349.3848,80.5371,279.6116,0,U,56728,999,16753,.12245E-3,.796E-5,0
IRIDIUM 178,2023-068V,2026-06-27T01:06:42.145632,14.80190446,.00033064,86.6563,21.2355,75.7906,284.3683,0,U,56729,999,16782,.98127953E-4,.771E-5,0
IRIDIUM 179,2023-068W,2026-06-27T12:20:36.574080,14.80054868,.0002445,86.6771,30.0536,88.3302,271.8199,0,U,56730,999,16789,.10263E-3,.803E-5,0
